TRANSPORTER-12 OBJECT AZ
1 62656U 25009AZ  26068.71026235  .00016057  00000+0  54903-3 0  9991
2 62656  97.3981 151.9913 0000987  45.3581 314.7740 15.30349724 63792
STARLINK-36094          
1 66851U 25281D   26068.14752402  .00039027  00000+0  14207-2 0  9997
2 66851  43.0032 346.4497 0001549 260.6256  99.4420 15.27569557 16101
