[{"OBJECT_NAME":"TRANSPORTER-12 OBJECT AZ","OBJECT_ID":"2025-009AZ","EPOCH":"2026-03-09T17:02:46.667040","MEAN_MOTION":15.30349724,"ECCENTRICITY":9.87e-5,"INCLINATION":97.3981,"RA_OF_ASC_NODE":151.9913,"ARG_OF_PERICENTER":45.3581,"MEAN_ANOMALY":314.774,"EPHEMERIS_TYPE":0,"CLASSIFICATION_TYPE":"U","NORAD_CAT_ID":62656,"ELEMENT_SET_NO":999,"REV_AT_EPOCH":6379,"BSTAR":0.00054902545,"MEAN_MOTION_DOT":0.00016057,"MEAN_MOTION_DDOT":0},{"OBJECT_NAME":"STARLINK-36094","OBJECT_ID":"2025-281D","EPOCH":"2026-03-09T03:32:26.075328","MEAN_MOTION":15.27569557,"ECCENTRICITY":0.00015493,"INCLINATION":43.0032,"RA_OF_ASC_NODE":346.4497,"ARG_OF_PERICENTER":260.6256,"MEAN_ANOMALY":99.442,"EPHEMERIS_TYPE":0,"CLASSIFICATION_TYPE":"U","NORAD_CAT_ID":66851,"ELEMENT_SET_NO":999,"REV_AT_EPOCH":1610,"BSTAR":0.0014206979,"MEAN_MOTION_DOT":0.00039027,"MEAN_MOTION_DDOT":0}]
